{
  "type": "FeatureCollection",
  "features": [
    {
      "type": "Feature",
      "properties": {
        "norad_id": 32275,
        "name": "COSMOS 2433 (720)",
        "group": "glo-ops",
        "lat": -61.32423162775036,
        "lon": -93.42791960504324,
        "alt_km": 19124.429169132094,
        "timestamp": "2025-12-09T05:43:20.986505+00:00",
        "meta_object_name": "COSMOS 2433 (720)",
        "meta_object_id": "2007-052A",
        "meta_epoch": "2025-12-07T22:15:39.436992",
        "meta_mean_motion": 2.13103936,
        "meta_eccentricity": 0.00054366,
        "meta_inclination": 65.6859,
        "meta_ra_of_asc_node": 322.3673,
        "meta_arg_of_pericenter": 253.7081,
        "meta_mean_anomaly": 106.2283,
        "meta_ephemeris_type": 0,
        "meta_classification_type": "U",
        "meta_norad_cat_id": 32275,
        "meta_element_set_no": 999,
        "meta_rev_at_epoch": 14098,
        "meta_bstar": 0,
        "meta_mean_motion_dot": -4.9e-07,
        "meta_mean_motion_ddot": 0,
        "tle_line1": "1 32275U 07052A   25341.92753978 -.00000049  00000+0  00000+0 0  9990",
        "tle_line2": "2 32275  65.6859 322.3673 0005436 253.7081 106.2283  2.13103936140982"
      },
      "geometry": {
        "type": "Point",
        "coordinates": [
          -93.42791960504324,
          -61.32423162775036
        ]
      }
    },
    {
      "type": "Feature",
      "properties": {
        "norad_id": 32276,
        "name": "COSMOS 2432 (719)",
        "group": "glo-ops",
        "lat": -44.28961747729595,
        "lon": 168.58113021208942,
        "alt_km": 19131.28415858043,
        "timestamp": "2025-12-09T05:43:20.986531+00:00",
        "meta_object_name": "COSMOS 2432 (719)",
        "meta_object_id": "2007-052B",
        "meta_epoch": "2025-12-08T02:14:19.806720",
        "meta_mean_motion": 2.13103088,
        "meta_eccentricity": 0.00112877,
        "meta_inclination": 65.7017,
        "meta_ra_of_asc_node": 322.4859,
        "meta_arg_of_pericenter": 312.3782,
        "meta_mean_anomaly": 119.1922,
        "meta_ephemeris_type": 0,
        "meta_classification_type": "U",
        "meta_norad_cat_id": 32276,
        "meta_element_set_no": 999,
        "meta_rev_at_epoch": 14101,
        "meta_bstar": 0,
        "meta_mean_motion_dot": -4.9e-07,
        "meta_mean_motion_ddot": 0,
        "tle_line1": "1 32276U 07052B   25342.09328480 -.00000049  00000+0  00000+0 0  9996",
        "tle_line2": "2 32276  65.7017 322.4859 0011287 312.3782 119.1922  2.13103088141014"
      },
      "geometry": {
        "type": "Point",
        "coordinates": [
          168.58113021208942,
          -44.28961747729595
        ]
      }
    },
    {
      "type": "Feature",
      "properties": {
        "norad_id": 32393,
        "name": "COSMOS 2434 (721)",
        "group": "glo-ops",
        "lat": 3.3360676632692647,
        "lon": 16.717822710416492,
        "alt_km": 19133.056407796812,
        "timestamp": "2025-12-09T05:43:20.986548+00:00",
        "meta_object_name": "COSMOS 2434 (721)",
        "meta_object_id": "2007-065A",
        "meta_epoch": "2025-12-08T05:21:15.731136",
        "meta_mean_motion": 2.13101228,
        "meta_eccentricity": 0.00044814,
        "meta_inclination": 64.3148,
        "meta_ra_of_asc_node": 198.3559,
        "meta_arg_of_pericenter": 71.0536,
        "meta_mean_anomaly": 46.2753,
        "meta_ephemeris_type": 0,
        "meta_classification_type": "U",
        "meta_norad_cat_id": 32393,
        "meta_element_set_no": 999,
        "meta_rev_at_epoch": 13970,
        "meta_bstar": 0,
        "meta_mean_motion_dot": 5e-07,
        "meta_mean_motion_ddot": 0,
        "tle_line1": "1 32393U 07065A   25342.22309874  .00000050  00000+0  00000+0 0  9992",
        "tle_line2": "2 32393  64.3148 198.3559 0004481  71.0536  46.2753  2.13101228139704"
      },
      "geometry": {
        "type": "Point",
        "coordinates": [
          16.717822710416492,
          3.3360676632692647
        ]
      }
    },
    {
      "type": "Feature",
      "properties": {
        "norad_id": 32395,
        "name": "COSMOS 2436 (723)",
        "group": "glo-ops",
        "lat": -44.36203075264816,
        "lon": 170.3283735347907,
        "alt_km": 19112.80736566359,
        "timestamp": "2025-12-09T05:43:20.986562+00:00",
        "meta_object_name": "COSMOS 2436 (723)",
        "meta_object_id": "2007-065C",
        "meta_epoch": "2025-12-08T02:01:11.627904",
        "meta_mean_motion": 2.13100022,
        "meta_eccentricity": 0.00177472,
        "meta_inclination": 64.3236,
        "meta_ra_of_asc_node": 198.4308,
        "meta_arg_of_pericenter": 9.2257,
        "meta_mean_anomaly": 134.6131,
        "meta_ephemeris_type": 0,
        "meta_classification_type": "U",
        "meta_norad_cat_id": 32395,
        "meta_element_set_no": 999,
        "meta_rev_at_epoch": 13965,
        "meta_bstar": 0,
        "meta_mean_motion_dot": 5.1e-07,
        "meta_mean_motion_ddot": 0,
        "tle_line1": "1 32395U 07065C   25342.08416236  .00000051  00000+0  00000+0 0  9990",
        "tle_line2": "2 32395  64.3236 198.4308 0017747   9.2257 134.6131  2.13100022139656"
      },
      "geometry": {
        "type": "Point",
        "coordinates": [
          170.3283735347907,
          -44.36203075264816
        ]
      }
    },
    {
      "type": "Feature",
      "properties": {
        "norad_id": 36111,
        "name": "COSMOS 2456 (730)",
        "group": "glo-ops",
        "lat": -23.994011197084685,
        "lon": 65.44019700178866,
        "alt_km": 19126.87813992655,
        "timestamp": "2025-12-09T05:43:20.986575+00:00",
        "meta_object_name": "COSMOS 2456 (730)",
        "meta_object_id": "2009-070A",
        "meta_epoch": "2025-12-08T11:09:04.675680",
        "meta_mean_motion": 2.13103441,
        "meta_eccentricity": 0.0003073,
        "meta_inclination": 64.8977,
        "meta_ra_of_asc_node": 77.4841,
        "meta_arg_of_pericenter": 297.5438,
        "meta_mean_anomaly": 162.1384,
        "meta_ephemeris_type": 0,
        "meta_classification_type": "U",
        "meta_norad_cat_id": 36111,
        "meta_element_set_no": 999,
        "meta_rev_at_epoch": 12436,
        "meta_bstar": 0,
        "meta_mean_motion_dot": -1.5e-07,
        "meta_mean_motion_ddot": 0,
        "tle_line1": "1 36111U 09070A   25342.46463745 -.00000015  00000+0  00000+0 0  9998",
        "tle_line2": "2 36111  64.8977  77.4841 0003073 297.5438 162.1384  2.13103441124367"
      },
      "geometry": {
        "type": "Point",
        "coordinates": [
          65.44019700178866,
          -23.994011197084685
        ]
      }
    },
    {
      "type": "Feature",
      "properties": {
        "norad_id": 36112,
        "name": "COSMOS 2457 (733)",
        "group": "glo-ops",
        "lat": 62.158596154776895,
        "lon": -165.1574776432402,
        "alt_km": 19116.48809465983,
        "timestamp": "2025-12-09T05:43:20.986587+00:00",
        "meta_object_name": "COSMOS 2457 (733)",
        "meta_object_id": "2009-070B",
        "meta_epoch": "2025-12-08T05:12:02.715840",
        "meta_mean_motion": 2.13100811,
        "meta_eccentricity": 0.0004735,
        "meta_inclination": 64.8829,
        "meta_ra_of_asc_node": 77.3403,
        "meta_arg_of_pericenter": 158.3782,
        "meta_mean_anomaly": 240.2784,
        "meta_ephemeris_type": 0,
        "meta_classification_type": "U",
        "meta_norad_cat_id": 36112,
        "meta_element_set_no": 999,
        "meta_rev_at_epoch": 12436,
        "meta_bstar": 0,
        "meta_mean_motion_dot": -1.5e-07,
        "meta_mean_motion_ddot": 0,
        "tle_line1": "1 36112U 09070B   25342.21669810 -.00000015  00000+0  00000+0 0  9993",
        "tle_line2": "2 36112  64.8829  77.3403 0004735 158.3782 240.2784  2.13100811124369"
      },
      "geometry": {
        "type": "Point",
        "coordinates": [
          -165.1574776432402,
          62.158596154776895
        ]
      }
    },
    {
      "type": "Feature",
      "properties": {
        "norad_id": 36402,
        "name": "COSMOS 2460 (732)",
        "group": "glo-ops",
        "lat": 62.92330405367856,
        "lon": 77.94124135682726,
        "alt_km": 19129.924271296728,
        "timestamp": "2025-12-09T05:43:20.986600+00:00",
        "meta_object_name": "COSMOS 2460 (732)",
        "meta_object_id": "2010-007C",
        "meta_epoch": "2025-12-08T21:00:03.337632",
        "meta_mean_motion": 2.13105944,
        "meta_eccentricity": 0.0002841,
        "meta_inclination": 65.5319,
        "meta_ra_of_asc_node": 320.9045,
        "meta_arg_of_pericenter": 270.8481,
        "meta_mean_anomaly": 272.2789,
        "meta_ephemeris_type": 0,
        "meta_classification_type": "U",
        "meta_norad_cat_id": 36402,
        "meta_element_set_no": 999,
        "meta_rev_at_epoch": 12267,
        "meta_bstar": 0,
        "meta_mean_motion_dot": -4.8e-07,
        "meta_mean_motion_ddot": 0,
        "tle_line1": "1 36402U 10007C   25342.87503863 -.00000048  00000+0  00000+0 0  9990",
        "tle_line2": "2 36402  65.5319 320.9045 0002841 270.8481 272.2789  2.13105944122678"
      },
      "geometry": {
        "type": "Point",
        "coordinates": [
          77.94124135682726,
          62.92330405367856
        ]
      }
    }
  ]
}